[Satellite]
VERSION=1.1
NAME=IO-86
NICKNAME=IO-86
TLE1=1 40931U 15052B   22341.46611562  .00001032  00000+0  54075-4 0  9993
TLE2=2 40931   5.9965  14.8235 0012932  96.2268 263.9400 14.76935061388966
STATUS=0
